{"fetched_at":"2026-07-19T17:31:09.790Z","source":"https://celestrak.org/NORAD/elements/gp.php?GROUP=oneweb&FORMAT=JSON","constellation":"oneweb","records":[{"OBJECT_NAME":"ONEWEB-0628","OBJECT_ID":"2023-004AF","EPOCH":"2026-07-19T02:52:18.324192","CLASSIFICATION_TYPE":"U","MEAN_MOTION":13.12450993,"ECCENTRICITY":0.00011082,"INCLINATION":87.8973,"RA_OF_ASC_NODE":344.3055,"ARG_OF_PERICENTER":108.0768,"MEAN_ANOMALY":252.0482,"EPHEMERIS_TYPE":0,"NORAD_CAT_ID":55169,"ELEMENT_SET_NO":999,"REV_AT_EPOCH":17222,"BSTAR":-0.0076686638,"MEAN_MOTION_DOT":-0.00002746,"MEAN_MOTION_DDOT":0},{"OBJECT_NAME":"ONEWEB-0629","OBJECT_ID":"2023-004AG","EPOCH":"2026-07-19T00:09:37.905408","CLASSIFICATION_TYPE":"U","MEAN_MOTION":13.17650256,"ECCENTRICITY":0.00015402,"INCLINATION":87.9151,"RA_OF_ASC_NODE":359.5395,"ARG_OF_PERICENTER":93.2302,"MEAN_ANOMALY":266.9006,"EPHEMERIS_TYPE":0,"NORAD_CAT_ID":55170,"ELEMENT_SET_NO":999,"REV_AT_EPOCH":17177,"BSTAR":-0.00000431925,"MEAN_MOTION_DOT":1.1e-7,"MEAN_MOTION_DDOT":0},{"OBJECT_NAME":"ONEWEB-0631","OBJECT_ID":"2023-004AH","EPOCH":"2026-07-19T02:54:46.370592","CLASSIFICATION_TYPE":"U","MEAN_MOTION":13.18686211,"ECCENTRICITY":0.00022668,"INCLINATION":87.9204,"RA_OF_ASC_NODE":329.0861,"ARG_OF_PERICENTER":91.1015,"MEAN_ANOMALY":269.0377,"EPHEMERIS_TYPE":0,"NORAD_CAT_ID":55171,"ELEMENT_SET_NO":999,"REV_AT_EPOCH":17388,"BSTAR":-0.00013163566,"MEAN_MOTION_DOT":-3.9e-7,"MEAN_MOTION_DDOT":0},{"OBJECT_NAME":"ONEWEB-0709","OBJECT_ID":"2023-004AJ","EPOCH":"2026-07-19T05:58:33.353760","CLASSIFICATION_TYPE":"U","MEAN_MOTION":13.11416417,"ECCENTRICITY":0.00027137,"INCLINATION":87.8884,"RA_OF_ASC_NODE":14.6937,"ARG_OF_PERICENTER":96.3503,"MEAN_ANOMALY":263.7934,"EPHEMERIS_TYPE":0,"NORAD_CAT_ID":55172,"ELEMENT_SET_NO":999,"REV_AT_EPOCH":17007,"BSTAR":0.0014544744,"MEAN_MOTION_DOT":0.00000528,"MEAN_MOTION_DDOT":0},{"OBJECT_NAME":"ONEWEB-0710","OBJECT_ID":"2023-004AK","EPOCH":"2026-07-18T22:40:56.511264","CLASSIFICATION_TYPE":"U","MEAN_MOTION":13.17649168,"ECCENTRICITY":0.00018622,"INCLINATION":87.9147,"RA_OF_ASC_NODE":359.5477,"ARG_OF_PERICENTER":88.3779,"MEAN_ANOMALY":271.7566,"EPHEMERIS_TYPE":0,"NORAD_CAT_ID":55173,"ELEMENT_SET_NO":999,"REV_AT_EPOCH":17176,"BSTAR":0.00022986861,"MEAN_MOTION_DOT":0.00000102,"MEAN_MOTION_DDOT":0},{"OBJECT_NAME":"ONEWEB-0711","OBJECT_ID":"2023-004AL","EPOCH":"2026-07-19T05:17:02.140224","CLASSIFICATION_TYPE":"U","MEAN_MOTION":13.11418465,"ECCENTRICITY":0.00017493,"INCLINATION":87.8886,"RA_OF_ASC_NODE":14.6879,"ARG_OF_PERICENTER":68.3071,"MEAN_ANOMALY":291.8243,"EPHEMERIS_TYPE":0,"NORAD_CAT_ID":55174,"ELEMENT_SET_NO":999,"REV_AT_EPOCH":17003,"BSTAR":-0.0008256434,"MEAN_MOTION_DOT":-0.0000028,"MEAN_MOTION_DDOT":0},{"OBJECT_NAME":"ONEWEB-0713","OBJECT_ID":"2023-004AM","EPOCH":"2026-07-19T00:14:18.599136","CLASSIFICATION_TYPE":"U","MEAN_MOTION":13.114172,"ECCENTRICITY":0.00018094,"INCLINATION":87.8888,"RA_OF_ASC_NODE":14.7319,"ARG_OF_PERICENTER":77.5371,"MEAN_ANOMALY":282.596,"EPHEMERIS_TYPE":0,"NORAD_CAT_ID":55175,"ELEMENT_SET_NO":999,"REV_AT_EPOCH":16999,"BSTAR":0.0014649071,"MEAN_MOTION_DOT":0.00000532,"MEAN_MOTION_DDOT":0},{"OBJECT_NAME":"ONEWEB-0715","OBJECT_ID":"2023-004AN","EPOCH":"2026-07-19T00:06:59.040864","CLASSIFICATION_TYPE":"U","MEAN_MOTION":13.11418058,"ECCENTRICITY":0.00025123,"INCLINATION":87.8887,"RA_OF_ASC_NODE":14.7331,"ARG_OF_PERICENTER":88.5633,"MEAN_ANOMALY":271.5783,"EPHEMERIS_TYPE":0,"NORAD_CAT_ID":55176,"ELEMENT_SET_NO":999,"REV_AT_EPOCH":17003,"BSTAR":0.0010636191,"MEAN_MOTION_DOT":0.0000039,"MEAN_MOTION_DDOT":0},{"OBJECT_NAME":"ONEWEB-0716","OBJECT_ID":"2023-004AP","EPOCH":"2026-07-19T03:59:16.047744","CLASSIFICATION_TYPE":"U","MEAN_MOTION":13.17647907,"ECCENTRICITY":0.00018284,"INCLINATION":87.9147,"RA_OF_ASC_NODE":359.5067,"ARG_OF_PERICENTER":100.8977,"MEAN_ANOMALY":259.2361,"EPHEMERIS_TYPE":0,"NORAD_CAT_ID":55177,"ELEMENT_SET_NO":999,"REV_AT_EPOCH":17179,"BSTAR":-0.00022300407,"MEAN_MOTION_DOT":-7.4e-7,"MEAN_MOTION_DDOT":0},{"OBJECT_NAME":"ONEWEB-0717","OBJECT_ID":"2023-004AQ","EPOCH":"2026-07-18T23:56:15.747936","CLASSIFICATION_TYPE":"U","MEAN_MOTION":13.17649102,"ECCENTRICITY":0.00019656,"INCLINATION":87.9162,"RA_OF_ASC_NODE":359.5308,"ARG_OF_PERICENTER":76.7242,"MEAN_ANOMALY":283.4108,"EPHEMERIS_TYPE":0,"NORAD_CAT_ID":55178,"ELEMENT_SET_NO":999,"REV_AT_EPOCH":17182,"BSTAR":-0.00034371896,"MEAN_MOTION_DOT":-0.00000121,"MEAN_MOTION_DDOT":0},{"OBJECT_NAME":"ONEWEB-0719","OBJECT_ID":"2023-004AR","EPOCH":"2026-07-19T03:49:31.861920","CLASSIFICATION_TYPE":"U","MEAN_MOTION":13.17648638,"ECCENTRICITY":0.00017094,"INCLINATION":87.9159,"RA_OF_ASC_NODE":359.4786,"ARG_OF_PERICENTER":97.6332,"MEAN_ANOMALY":262.4994,"EPHEMERIS_TYPE":0,"NORAD_CAT_ID":55179,"ELEMENT_SET_NO":999,"REV_AT_EPOCH":17179,"BSTAR":-0.00060617804,"MEAN_MOTION_DOT":-0.00000222,"MEAN_MOTION_DDOT":0},{"OBJECT_NAME":"ONEWEB-0530","OBJECT_ID":"2023-029A","EPOCH":"2026-07-19T05:03:33.147648","CLASSIFICATION_TYPE":"U","MEAN_MOTION":13.20771488,"ECCENTRICITY":0.00017444,"INCLINATION":87.9174,"RA_OF_ASC_NODE":268.085,"ARG_OF_PERICENTER":88.0051,"MEAN_ANOMALY":272.1282,"EPHEMERIS_TYPE":0,"NORAD_CAT_ID":55796,"ELEMENT_SET_NO":999,"REV_AT_EPOCH":16537,"BSTAR":-0.00032729533,"MEAN_MOTION_DOT":-0.0000012,"MEAN_MOTION_DDOT":0},{"OBJECT_NAME":"ONEWEB-0534","OBJECT_ID":"2023-029B","EPOCH":"2026-07-19T04:46:34.302432","CLASSIFICATION_TYPE":"U","MEAN_MOTION":13.20769862,"ECCENTRICITY":0.00020531,"INCLINATION":87.9175,"RA_OF_ASC_NODE":268.0883,"ARG_OF_PERICENTER":100.6135,"MEAN_ANOMALY":259.523,"EPHEMERIS_TYPE":0,"NORAD_CAT_ID":55797,"ELEMENT_SET_NO":999,"REV_AT_EPOCH":16537,"BSTAR":0.00016769559,"MEAN_MOTION_DOT":8.1e-7,"MEAN_MOTION_DDOT":0},{"OBJECT_NAME":"ONEWEB-0556","OBJECT_ID":"2023-029C","EPOCH":"2026-07-19T04:56:17.342592","CLASSIFICATION_TYPE":"U","MEAN_MOTION":13.2077108,"ECCENTRICITY":0.00014126,"INCLINATION":87.9171,"RA_OF_ASC_NODE":268.0854,"ARG_OF_PERICENTER":117.142,"MEAN_ANOMALY":242.9858,"EPHEMERIS_TYPE":0,"NORAD_CAT_ID":55798,"ELEMENT_SET_NO":999,"REV_AT_EPOCH":16537,"BSTAR":0.00044140749,"MEAN_MOTION_DOT":0.00000192,"MEAN_MOTION_DDOT":0},{"OBJECT_NAME":"ONEWEB-0562","OBJECT_ID":"2023-029D","EPOCH":"2026-07-19T04:36:53.253792","CLASSIFICATION_TYPE":"U","MEAN_MOTION":13.20772433,"ECCENTRICITY":0.00012449,"INCLINATION":87.917,"RA_OF_ASC_NODE":268.0693,"ARG_OF_PERICENTER":88.1061,"MEAN_ANOMALY":272.0215,"EPHEMERIS_TYPE":0,"NORAD_CAT_ID":55799,"ELEMENT_SET_NO":999,"REV_AT_EPOCH":16537,"BSTAR":0.000037909185,"MEAN_MOTION_DOT":2.8e-7,"MEAN_MOTION_DDOT":0},{"OBJECT_NAME":"ONEWEB-0563","OBJECT_ID":"2023-029E","EPOCH":"2026-07-19T04:29:37.029696","CLASSIFICATION_TYPE":"U","MEAN_MOTION":13.20770191,"ECCENTRICITY":0.00021344,"INCLINATION":87.9173,"RA_OF_ASC_NODE":268.1004,"ARG_OF_PERICENTER":103.3481,"MEAN_ANOMALY":256.789,"EPHEMERIS_TYPE":0,"NORAD_CAT_ID":55800,"ELEMENT_SET_NO":999,"REV_AT_EPOCH":16536,"BSTAR":0.000092476797,"MEAN_MOTION_DOT":5.1e-7,"MEAN_MOTION_DDOT":0}]}
